[{"OBJECT_NAME":"STARLINK-31349","OBJECT_ID":"2024-056X","EPOCH":"2026-03-09T11:36:04.250592","MEAN_MOTION":15.27574483,"ECCENTRICITY":0.00011081,"INCLINATION":42.9995,"RA_OF_ASC_NODE":231.7936,"ARG_OF_PERICENTER":266.9092,"MEAN_ANOMALY":93.1633,"EPHEMERIS_TYPE":0,"CLASSIFICATION_TYPE":"U","NORAD_CAT_ID":59317,"ELEMENT_SET_NO":999,"REV_AT_EPOCH":11119,"BSTAR":2.004942e-6,"MEAN_MOTION_DOT":-2.07e-6,"MEAN_MOTION_DDOT":0},{"OBJECT_NAME":"EDISON-1","OBJECT_ID":"2025-009B","EPOCH":"2026-03-09T19:16:13.822464","MEAN_MOTION":15.29042904,"ECCENTRICITY":0.00043285,"INCLINATION":97.4042,"RA_OF_ASC_NODE":151.6286,"ARG_OF_PERICENTER":306.4185,"MEAN_ANOMALY":53.6655,"EPHEMERIS_TYPE":0,"CLASSIFICATION_TYPE":"U","NORAD_CAT_ID":62610,"ELEMENT_SET_NO":999,"REV_AT_EPOCH":6375,"BSTAR":0.00052814963,"MEAN_MOTION_DOT":0.00014835,"MEAN_MOTION_DDOT":0}]
